[{"OBJECT_NAME":"STARLINK-36772","OBJECT_ID":"2026-026A","EPOCH":"2026-03-11T06:00:02.000160","MEAN_MOTION":15.40567585,"ECCENTRICITY":0.00017653,"INCLINATION":97.2845,"RA_OF_ASC_NODE":124.7709,"ARG_OF_PERICENTER":75.7028,"MEAN_ANOMALY":176.6925,"EPHEMERIS_TYPE":0,"CLASSIFICATION_TYPE":"U","NORAD_CAT_ID":67721,"ELEMENT_SET_NO":999,"REV_AT_EPOCH":556,"BSTAR":-0.05188049,"MEAN_MOTION_DOT":-0.01890052,"MEAN_MOTION_DDOT":0},{"OBJECT_NAME":"STARLINK-36796","OBJECT_ID":"2026-026B","EPOCH":"2026-03-11T06:00:02.000160","MEAN_MOTION":15.39595814,"ECCENTRICITY":0.00019515,"INCLINATION":97.2847,"RA_OF_ASC_NODE":124.7613,"ARG_OF_PERICENTER":72.5913,"MEAN_ANOMALY":156.4214,"EPHEMERIS_TYPE":0,"CLASSIFICATION_TYPE":"U","NORAD_CAT_ID":67722,"ELEMENT_SET_NO":999,"REV_AT_EPOCH":556,"BSTAR":-0.052809218,"MEAN_MOTION_DOT":-0.01865781,"MEAN_MOTION_DDOT":0},{"OBJECT_NAME":"STARLINK-36369","OBJECT_ID":"2026-026C","EPOCH":"2026-03-11T06:00:02.000160","MEAN_MOTION":15.42934061,"ECCENTRICITY":0.00017796,"INCLINATION":97.2848,"RA_OF_ASC_NODE":124.7745,"ARG_OF_PERICENTER":80.4104,"MEAN_ANOMALY":187.8308,"EPHEMERIS_TYPE":0,"CLASSIFICATION_TYPE":"U","NORAD_CAT_ID":67723,"ELEMENT_SET_NO":999,"REV_AT_EPOCH":556,"BSTAR":-0.048420881,"MEAN_MOTION_DOT":-0.01907497,"MEAN_MOTION_DDOT":0},{"OBJECT_NAME":"STARLINK-36752","OBJECT_ID":"2026-026D","EPOCH":"2026-03-11T06:00:02.000160","MEAN_MOTION":15.40859485,"ECCENTRICITY":0.00016343,"INCLINATION":97.2843,"RA_OF_ASC_NODE":124.7879,"ARG_OF_PERICENTER":81.2969,"MEAN_ANOMALY":216.7499,"EPHEMERIS_TYPE":0,"CLASSIFICATION_TYPE":"U","NORAD_CAT_ID":67724,"ELEMENT_SET_NO":999,"REV_AT_EPOCH":556,"BSTAR":-0.050904919,"MEAN_MOTION_DOT":-0.0187428,"MEAN_MOTION_DDOT":0},{"OBJECT_NAME":"STARLINK-36754","OBJECT_ID":"2026-026E","EPOCH":"2026-03-11T06:00:02.000160","MEAN_MOTION":15.41888106,"ECCENTRICITY":0.00016938,"INCLINATION":97.285,"RA_OF_ASC_NODE":124.7627,"ARG_OF_PERICENTER":81.693,"MEAN_ANOMALY":159.256,"EPHEMERIS_TYPE":0,"CLASSIFICATION_TYPE":"U","NORAD_CAT_ID":67725,"ELEMENT_SET_NO":999,"REV_AT_EPOCH":556,"BSTAR":-0.049958177,"MEAN_MOTION_DOT":-0.01900743,"MEAN_MOTION_DDOT":0},{"OBJECT_NAME":"STARLINK-36755","OBJECT_ID":"2026-026F","EPOCH":"2026-03-11T03:33:59.670720","MEAN_MOTION":15.49187679,"ECCENTRICITY":0.00016648,"INCLINATION":97.2846,"RA_OF_ASC_NODE":124.6415,"ARG_OF_PERICENTER":85.712,"MEAN_ANOMALY":274.4321,"EPHEMERIS_TYPE":0,"CLASSIFICATION_TYPE":"U","NORAD_CAT_ID":67726,"ELEMENT_SET_NO":999,"REV_AT_EPOCH":434,"BSTAR":0.0017641533,"MEAN_MOTION_DOT":0.00097044,"MEAN_MOTION_DDOT":0},{"OBJECT_NAME":"STARLINK-36741","OBJECT_ID":"2026-026G","EPOCH":"2026-03-11T06:00:02.000160","MEAN_MOTION":15.43886574,"ECCENTRICITY":0.00018457,"INCLINATION":97.2846,"RA_OF_ASC_NODE":124.7577,"ARG_OF_PERICENTER":67.8808,"MEAN_ANOMALY":160.6818,"EPHEMERIS_TYPE":0,"CLASSIFICATION_TYPE":"U","NORAD_CAT_ID":67727,"ELEMENT_SET_NO":999,"REV_AT_EPOCH":556,"BSTAR":-0.04738684,"MEAN_MOTION_DOT":-0.019259,"MEAN_MOTION_DDOT":0},{"OBJECT_NAME":"STARLINK-36757","OBJECT_ID":"2026-026H","EPOCH":"2026-03-11T06:00:02.000160","MEAN_MOTION":15.4209435,"ECCENTRICITY":0.00016108,"INCLINATION":97.284,"RA_OF_ASC_NODE":124.8085,"ARG_OF_PERICENTER":73.9517,"MEAN_ANOMALY":272.6662,"EPHEMERIS_TYPE":0,"CLASSIFICATION_TYPE":"U","NORAD_CAT_ID":67728,"ELEMENT_SET_NO":999,"REV_AT_EPOCH":556,"BSTAR":-0.050235115,"MEAN_MOTION_DOT":-0.01922061,"MEAN_MOTION_DDOT":0},{"OBJECT_NAME":"STARLINK-36751","OBJECT_ID":"2026-026J","EPOCH":"2026-03-11T06:00:02.000160","MEAN_MOTION":15.4211953,"ECCENTRICITY":0.00014549,"INCLINATION":97.285,"RA_OF_ASC_NODE":124.8209,"ARG_OF_PERICENTER":82.7648,"MEAN_ANOMALY":293.4382,"EPHEMERIS_TYPE":0,"CLASSIFICATION_TYPE":"U","NORAD_CAT_ID":67729,"ELEMENT_SET_NO":999,"REV_AT_EPOCH":556,"BSTAR":-0.049947869,"MEAN_MOTION_DOT":-0.01913565,"MEAN_MOTION_DDOT":0},{"OBJECT_NAME":"STARLINK-36747","OBJECT_ID":"2026-026K","EPOCH":"2026-03-11T06:00:02.000160","MEAN_MOTION":15.42003428,"ECCENTRICITY":0.0001411,"INCLINATION":97.2842,"RA_OF_ASC_NODE":124.8158,"ARG_OF_PERICENTER":85.0312,"MEAN_ANOMALY":279.2009,"EPHEMERIS_TYPE":0,"CLASSIFICATION_TYPE":"U","NORAD_CAT_ID":67730,"ELEMENT_SET_NO":999,"REV_AT_EPOCH":556,"BSTAR":-0.050293796,"MEAN_MOTION_DOT":-0.01918714,"MEAN_MOTION_DDOT":0},{"OBJECT_NAME":"STARLINK-36315","OBJECT_ID":"2026-026L","EPOCH":"2026-03-11T06:00:02.000160","MEAN_MOTION":15.4246982,"ECCENTRICITY":0.00012295,"INCLINATION":97.2846,"RA_OF_ASC_NODE":124.8261,"ARG_OF_PERICENTER":93.1992,"MEAN_ANOMALY":295.3491,"EPHEMERIS_TYPE":0,"CLASSIFICATION_TYPE":"U","NORAD_CAT_ID":67731,"ELEMENT_SET_NO":999,"REV_AT_EPOCH":556,"BSTAR":-0.04944497,"MEAN_MOTION_DOT":-0.01916294,"MEAN_MOTION_DDOT":0},{"OBJECT_NAME":"STARLINK-36260","OBJECT_ID":"2026-026M","EPOCH":"2026-03-11T06:00:02.000160","MEAN_MOTION":15.42573219,"ECCENTRICITY":0.00013421,"INCLINATION":97.2842,"RA_OF_ASC_NODE":124.8335,"ARG_OF_PERICENTER":78.5726,"MEAN_ANOMALY":327.5416,"EPHEMERIS_TYPE":0,"CLASSIFICATION_TYPE":"U","NORAD_CAT_ID":67732,"ELEMENT_SET_NO":999,"REV_AT_EPOCH":556,"BSTAR":-0.049124951,"MEAN_MOTION_DOT":-0.01911171,"MEAN_MOTION_DDOT":0},{"OBJECT_NAME":"STARLINK-36746","OBJECT_ID":"2026-026N","EPOCH":"2026-03-11T01:50:36.835008","MEAN_MOTION":15.49237631,"ECCENTRICITY":0.00013914,"INCLINATION":97.2844,"RA_OF_ASC_NODE":124.4337,"ARG_OF_PERICENTER":98.6272,"MEAN_ANOMALY":261.5137,"EPHEMERIS_TYPE":0,"CLASSIFICATION_TYPE":"U","NORAD_CAT_ID":67733,"ELEMENT_SET_NO":999,"REV_AT_EPOCH":432,"BSTAR":0.0015136383,"MEAN_MOTION_DOT":0.00083249,"MEAN_MOTION_DDOT":0},{"OBJECT_NAME":"STARLINK-36749","OBJECT_ID":"2026-026P","EPOCH":"2026-03-11T03:17:59.780544","MEAN_MOTION":15.49217904,"ECCENTRICITY":0.00032401,"INCLINATION":97.2847,"RA_OF_ASC_NODE":124.658,"ARG_OF_PERICENTER":80.2516,"MEAN_ANOMALY":279.9101,"EPHEMERIS_TYPE":0,"CLASSIFICATION_TYPE":"U","NORAD_CAT_ID":67734,"ELEMENT_SET_NO":999,"REV_AT_EPOCH":434,"BSTAR":0.0017336007,"MEAN_MOTION_DOT":0.00095454,"MEAN_MOTION_DDOT":0},{"OBJECT_NAME":"STARLINK-36691","OBJECT_ID":"2026-026Q","EPOCH":"2026-03-11T06:00:02.000160","MEAN_MOTION":15.43047901,"ECCENTRICITY":0.00016271,"INCLINATION":97.2848,"RA_OF_ASC_NODE":124.858,"ARG_OF_PERICENTER":63.3499,"MEAN_ANOMALY":38.9619,"EPHEMERIS_TYPE":0,"CLASSIFICATION_TYPE":"U","NORAD_CAT_ID":67735,"ELEMENT_SET_NO":999,"REV_AT_EPOCH":570,"BSTAR":-0.048182388,"MEAN_MOTION_DOT":-0.01905545,"MEAN_MOTION_DDOT":0},{"OBJECT_NAME":"STARLINK-36317","OBJECT_ID":"2026-026R","EPOCH":"2026-03-11T06:00:02.000160","MEAN_MOTION":15.43145421,"ECCENTRICITY":0.00016063,"INCLINATION":97.2845,"RA_OF_ASC_NODE":124.8511,"ARG_OF_PERICENTER":63.7832,"MEAN_ANOMALY":22.7082,"EPHEMERIS_TYPE":0,"CLASSIFICATION_TYPE":"U","NORAD_CAT_ID":67736,"ELEMENT_SET_NO":999,"REV_AT_EPOCH":556,"BSTAR":-0.047836778,"MEAN_MOTION_DOT":-0.0189886,"MEAN_MOTION_DDOT":0}]
